[{"OBJECT_NAME":"LYNK TOWER 6","OBJECT_ID":"2024-043AB","EPOCH":"2026-03-09T21:28:38.303328","MEAN_MOTION":15.29548678,"ECCENTRICITY":0.00097492,"INCLINATION":97.5426,"RA_OF_ASC_NODE":204.1954,"ARG_OF_PERICENTER":232.0253,"MEAN_ANOMALY":128.0107,"EPHEMERIS_TYPE":0,"CLASSIFICATION_TYPE":"U","NORAD_CAT_ID":59123,"ELEMENT_SET_NO":999,"REV_AT_EPOCH":11184,"BSTAR":0.00040142146,"MEAN_MOTION_DOT":0.0001144,"MEAN_MOTION_DDOT":0},{"OBJECT_NAME":"STARLINK-32836","OBJECT_ID":"2025-029T","EPOCH":"2026-03-09T16:59:35.782656","MEAN_MOTION":15.30203614,"ECCENTRICITY":9.154e-5,"INCLINATION":53.1605,"RA_OF_ASC_NODE":230.0081,"ARG_OF_PERICENTER":96.0489,"MEAN_ANOMALY":264.0617,"EPHEMERIS_TYPE":0,"CLASSIFICATION_TYPE":"U","NORAD_CAT_ID":62965,"ELEMENT_SET_NO":999,"REV_AT_EPOCH":6135,"BSTAR":0.00083427762,"MEAN_MOTION_DOT":0.00024434,"MEAN_MOTION_DDOT":0}]
